NORAD_CAT_ID,OBJECT_NAME,OBJECT_TYPE,EPOCH,MEAN_MOTION,ECCENTRICITY,INCLINATION,RA_OF_ASC_NODE,ARG_OF_PERICENTER,MEAN_ANOMALY,BSTAR,MEAN_MOTION_DOT,MEAN_MOTION_DDOT,TLE_LINE0,TLE_LINE1,TLE_LINE2,SEMIMAJOR_AXIS,PERIOD,APOGEE,PERIGEE,DECAYED
53154.0,STARLINK-4077,PAYLOAD,2022-11-03 03:28:59,15.0884115,0.0001754999999999,53.2163,252.3292,50.7122,309.4025,7.5055e-05,9.07e-06,0.0,0 STARLINK-4077,1 53154U 22083Y   22307.14512767  .00000907  00000-0  75055-4 0  9992,2 53154  53.2163 252.3292 0001755  50.7122 309.4025 15.08841150 17420,6917.877,95.437,540.956,538.528,0.0
53154.0,STARLINK-4077,PAYLOAD,2022-11-03 08:15:08,15.08848705,0.0001774999999999,53.2155,251.4371,50.6548,309.4601,0.00019561,2.827e-05,0.0,0 STARLINK-4077,1 53154U 22083Y   22307.34384332  .00002827  00000-0  19561-3 0  9991,2 53154  53.2155 251.4371 0001775  50.6548 309.4601 15.08848705 16828,6917.854,95.437,540.947,538.491,0.0
53154.0,STARLINK-4077,PAYLOAD,2022-11-03 20:58:12,15.08853194,0.000178,53.2154,249.0582,51.0252,309.0898,0.00027382,4.074e-05,0.0,0 STARLINK-4077,1 53154U 22083Y   22307.87375993  .00004074  00000-0  27382-3 0  9998,2 53154  53.2154 249.0582 0001780  51.0252 309.0898 15.08853194 16908,6917.84,95.437,540.936,538.474,0.0
53154.0,STARLINK-4077,PAYLOAD,2022-11-04 12:52:03,15.08867246,0.0001595,53.2151,246.0844,42.8261,317.2855,0.00038853,5.905e-05,0.0,0 STARLINK-4077,1 53154U 22083Y   22308.53614978  .00005905  00000-0  38853-3 0  9990,2 53154  53.2151 246.0844 0001595  42.8261 317.2855 15.08867246 17004,6917.797,95.436,540.765,538.559,0.0
53154.0,STARLINK-4077,PAYLOAD,2022-11-05 03:10:31,15.08846785,0.0001575999999999,53.2149,243.4078,42.8497,317.2618,-4.1671e-05,-9.51e-06,0.0,0 STARLINK-4077,1 53154U 22083Y   22309.13231422 -.00000951  00000-0 -41671-4 0  9997,2 53154  53.2149 243.4078 0001576  42.8497 317.2618 15.08846785 17722,6917.86,95.437,540.815,538.634,0.0
53154.0,STARLINK-4077,PAYLOAD,2022-11-05 07:56:41,15.08833687,0.000168,53.2152,242.516,48.9106,311.2031,-0.00026444,-4.493e-05,0.0,0 STARLINK-4077,1 53154U 22083Y   22309.33103833 -.00004493  00000-0 -26444-3 0  9998,2 53154  53.2152 242.5160 0001680  48.9106 311.2031 15.08833687 17751,6917.9,95.438,540.927,538.602,0.0
53154.0,STARLINK-4077,PAYLOAD,2022-11-05 12:42:51,15.08816201,0.0001156,53.2152,241.6237,31.6376,328.4685,-0.00060365,-9.876e-05,0.0,0 STARLINK-4077,1 53154U 22083Y   22309.52976294 -.00009876  00000-0 -60365-3 0  9998,2 53154  53.2152 241.6237 0001156  31.6376 328.4685 15.08816201 17154,6917.953,95.439,540.618,539.018,0.0
53154.0,STARLINK-4077,PAYLOAD,2022-11-06 12:33:40,15.08823916,0.0002049,53.2157,237.1624,54.3914,305.7269,0.0011029,0.00017301,0.0,0 STARLINK-4077,1 53154U 22083Y   22310.52338933  .00017301  00000-0  11029-2 0  9994,2 53154  53.2157 237.1624 0002049  54.3914 305.7269 15.08823916 17305,6917.93,95.439,541.212,538.377,0.0
53154.0,STARLINK-4077,PAYLOAD,2022-11-07 18:46:00,15.08836029,0.0001824,53.215,231.5102,56.8751,303.2416,0.00027758,4.132e-05,0.0,0 STARLINK-4077,1 53154U 22083Y   22311.78195238  .00004132  00000-0  27758-3 0  9997,2 53154  53.2150 231.5102 0001824  56.8751 303.2416 15.08836029 18120,6917.893,95.438,541.019,538.496,0.0
53154.0,STARLINK-4077,PAYLOAD,2022-11-08 01:07:32,15.08859186,0.000173,53.2149,230.3235,51.1871,308.9275,0.00087439,0.00013663,0.0,0 STARLINK-4077,1 53154U 22083Y   22312.04690744  .00013663  00000-0  87439-3 0  9990,2 53154  53.2149 230.3235 0001730  51.1871 308.9275 15.08859186 18167,6917.821999999999,95.436,540.884,538.49,0.0
53154.0,STARLINK-4077,PAYLOAD,2022-11-08 18:36:45,15.08893255,0.0001809,53.2147,227.0526,51.6123,308.5031,0.0011786,0.00018547,0.0,0 STARLINK-4077,1 53154U 22083Y   22312.77552977  .00018547  00000-0  11786-2 0  9992,2 53154  53.2147 227.0526 0001809  51.6123 308.5031 15.08893255 18276,6917.718000000003,95.434,540.8340000000002,538.331,0.0
53154.0,STARLINK-4077,PAYLOAD,2022-11-09 04:09:03,15.08901771,0.0001774,53.2165,225.2731,47.4875,312.6266,0.0013142999999999,0.00020726,0.0,0 STARLINK-4077,1 53154U 22083Y   22313.17295254  .00020726  00000-0  13143-2 0  9990,2 53154  53.2165 225.2731 0001774  47.4875 312.6266 15.08901771 17708,6917.691999999999,95.434,540.784,538.3290000000002,0.0
53154.0,STARLINK-4077,PAYLOAD,2022-11-09 21:38:17,15.08846996,0.0001385999999999,53.2156,221.9976,60.6399,299.4731,-0.00027284,-4.628e-05,0.0,0 STARLINK-4077,1 53154U 22083Y   22313.90159710 -.00004628  00000-0 -27284-3 0  9994,2 53154  53.2156 221.9976 0001386  60.6399 299.4731 15.08846996 17817,6917.859,95.437,540.683,538.765,0.0
53154.0,STARLINK-4077,PAYLOAD,2022-11-10 00:49:04,15.088318300000005,0.0001602,53.2156,221.403,41.2532,318.8581,-0.00049125,-8.096e-05,0.0,0 STARLINK-4077,1 53154U 22083Y   22314.03407975 -.00008096  00000-0 -49125-3 0  9999,2 53154  53.2156 221.4030 0001602  41.2532 318.8581 15.08831830 18460,6917.905,95.438,540.879,538.6619999999998,0.0
53154.0,STARLINK-4077,PAYLOAD,2022-11-10 10:21:23,15.08826249,0.0001641999999999,53.2152,219.6179,39.0239,321.0871,0.0003542,5.351e-05,0.0,0 STARLINK-4077,1 53154U 22083Y   22314.43152705  .00005351  00000-0  35420-3 0  9993,2 53154  53.2152 219.6179 0001642  39.0239 321.0871 15.08826249 17894,6917.922,95.438,540.923,538.651,0.0
53154.0,STARLINK-4077,PAYLOAD,2022-11-11 10:12:12,15.08822187,0.0001767,53.2158,215.1596,49.504,310.6106,0.00026211,3.884e-05,0.0,0 STARLINK-4077,1 53154U 22083Y   22315.42514162  .00003884  00000-0  26211-3 0  9999,2 53154  53.2158 215.1596 0001767  49.5040 310.6106 15.08822187 18677,6917.935,95.439,541.0219999999998,538.577,0.0
53154.0,STARLINK-4077,PAYLOAD,2022-11-11 21:19:54,15.0882631,0.0001667,53.2157,213.0791,53.2775,306.837,0.00026486,3.928e-05,0.0,0 STARLINK-4077,1 53154U 22083Y   22315.88882795  .00003928  00000-0  26486-3 0  9992,2 53154  53.2157 213.0791 0001667  53.2775 306.8370 15.08826310 18117,6917.922,95.438,540.94,538.634,0.0
53154.0,STARLINK-4077,PAYLOAD,2022-11-12 03:41:27,15.08839802,0.0001866,53.2158,211.8883,49.7732,310.3423,0.0005279,8.123e-05,0.0,0 STARLINK-4077,1 53154U 22083Y   22316.15378655  .00008123  00000-0  52790-3 0  9997,2 53154  53.2158 211.8883 0001866  49.7732 310.3423 15.08839802 18782,6917.880999999999,95.438,541.0369999999998,538.455,0.0
53154.0,STARLINK-4077,PAYLOAD,2022-11-12 16:24:31,15.08858797,0.0001866,53.2152,209.5092,50.1188,309.9968,0.00078492,0.00012232,0.0,0 STARLINK-4077,1 53154U 22083Y   22316.68370089  .00012232  00000-0  78492-3 0  9991,2 53154  53.2152 209.5092 0001866  50.1188 309.9968 15.08858797 18864,6917.823,95.436,540.979,538.3969999999998,0.0
53154.0,STARLINK-4077,PAYLOAD,2022-11-12 21:10:40,15.08861246,0.0001847,53.215,208.6166,49.8636,310.2518,0.00070505,0.00010957,0.0,0 STARLINK-4077,1 53154U 22083Y   22316.88241834  .00010957  00000-0  70505-3 0  9997,2 53154  53.2150 208.6166 0001847  49.8636 310.2518 15.08861246 18269,6917.815,95.436,540.9580000000002,538.403,0.0
53154.0,STARLINK-4077,PAYLOAD,2022-11-13 01:56:50,15.08852024,0.0002129,53.2149,207.7292,45.7846,314.3321,0.00023968,3.53e-05,0.0,0 STARLINK-4077,1 53154U 22083Y   22317.08113838  .00003530  00000-0  23968-3 0  9992,2 53154  53.2149 207.7292 0002129  45.7846 314.3321 15.08852024 18923,6917.844,95.437,541.181,538.236,0.0
53154.0,STARLINK-4077,PAYLOAD,2022-11-13 05:07:36,15.0884646,0.0001802,53.2142,207.1303,49.4179,310.697,-0.00019277,-3.355e-05,0.0,0 STARLINK-4077,1 53154U 22083Y   22317.21361808 -.00003355  00000-0 -19277-3 0  9994,2 53154  53.2142 207.1303 0001802  49.4179 310.6970 15.08846460 18319,6917.861,95.437,540.972,538.479,0.0
53154.0,STARLINK-4077,PAYLOAD,2022-11-13 22:36:52,15.08824054,0.0001726,53.2144,203.858,52.9098,307.2052,-0.00029319,-4.949e-05,0.0,0 STARLINK-4077,1 53154U 22083Y   22317.94227100 -.00004949  00000-0 -29319-3 0  9998,2 53154  53.2144 203.8580 0001726  52.9098 307.2052 15.08824054 19055,6917.929,95.439,540.988,538.6,0.0
53154.0,STARLINK-4077,PAYLOAD,2022-11-14 09:44:34,15.08822101,0.0001769,53.2144,201.7766,53.1011,307.0143,-0.0002077,-3.591e-05,0.0,0 STARLINK-4077,1 53154U 22083Y   22318.40595693 -.00003591  00000-0 -20770-3 0  9999,2 53154  53.2144 201.7766 0001769  53.1011 307.0143 15.08822101 18490,6917.935,95.439,541.024,538.576,0.0
53154.0,STARLINK-4077,PAYLOAD,2022-11-14 16:06:07,15.08830076,0.0001828,53.215,200.5868,50.7651,309.3503,-9.1222e-05,-1.739e-05,0.0,0 STARLINK-4077,1 53154U 22083Y   22318.67091791 -.00001739  00000-0 -91222-4 0  9991,2 53154  53.2150 200.5868 0001828  50.7651 309.3503 15.08830076 18536,6917.911,95.438,541.04,538.511,0.0
53154.0,STARLINK-4077,PAYLOAD,2022-11-15 01:38:25,15.08841653,0.0001828,53.216,198.8029,53.1577,306.9582,-3.9838e-05,-9.22e-06,0.0,0 STARLINK-4077,1 53154U 22083Y   22319.06835529 -.00000922  00000-0 -39838-4 0  9998,2 53154  53.2160 198.8029 0001828  53.1577 306.9582 15.08841653 19229,6917.875,95.437,541.005,538.476,0.0
53154.0,STARLINK-4077,PAYLOAD,2022-11-15 09:35:21,15.08839054,0.0001796,53.216,197.3163,51.9746,308.1408,0.00012812,1.751e-05,0.0,0 STARLINK-4077,1 53154U 22083Y   22319.39955388  .00001751  00000-0  12812-3 0  9991,2 53154  53.2160 197.3163 0001796  51.9746 308.1408 15.08839054 18648,6917.8830000000025,95.438,540.991,538.506,0.0
53154.0,STARLINK-4077,PAYLOAD,2022-11-15 20:43:03,15.08839081,0.0001826,53.2159,195.2353,49.8289,310.2862,0.00032442,4.879e-05,0.0,0 STARLINK-4077,1 53154U 22083Y   22319.86323327  .00004879  00000-0  32442-3 0  9990,2 53154  53.2159 195.2353 0001826  49.8289 310.2862 15.08839081 18712,6917.8830000000025,95.438,541.011,538.485,0.0
53154.0,STARLINK-4077,PAYLOAD,2022-11-16 01:29:13,15.08838582,0.0002082,53.2147,194.3432,46.0093,314.107,0.00030751,4.609e-05,0.0,0 STARLINK-4077,1 53154U 22083Y   22320.06196284  .00004609  00000-0  30751-3 0  9996,2 53154  53.2147 194.3432 0002082  46.0093 314.1070 15.08838582 19376,6917.885,95.438,541.19,538.309,0.0
